NORAD_CAT_ID,OBJECT_NAME,OBJECT_TYPE,EPOCH,MEAN_MOTION,ECCENTRICITY,INCLINATION,RA_OF_ASC_NODE,ARG_OF_PERICENTER,MEAN_ANOMALY,BSTAR,MEAN_MOTION_DOT,MEAN_MOTION_DDOT,TLE_LINE0,TLE_LINE1,TLE_LINE2,SEMIMAJOR_AXIS,PERIOD,APOGEE,PERIGEE,DECAYED
53594.0,STARLINK-4681,PAYLOAD,2022-12-01 06:00:00,15.08850618,0.0001764999999999,53.2154,206.1424,55.8855,7.9289999999999985,-0.0012507,-0.00020144,0.0,0 STARLINK-4681,1 53594U 22104G   22335.25001157 -.00020144  00000-0 -12507-2 0  9991,2 53594  53.2154 206.1424 0001765  55.8855   7.9290 15.08850618 14602,6917.848000000001,95.437,540.934,538.492,0.0
53594.0,STARLINK-4681,PAYLOAD,2022-12-01 14:00:01,15.08831901,0.0001720999999999,53.2154,204.6453,63.902,11.5224,0.0028921,0.00046031,0.0,0 STARLINK-4681,1 53594U 22104G   22335.58334491  .00046031  00000-0  28921-2 0  9995,2 53594  53.2154 204.6453 0001721  63.9020  11.5224 15.08831901  1308,6917.905,95.438,540.961,538.58,0.0
53594.0,STARLINK-4681,PAYLOAD,2022-12-01 22:00:00,15.08864513,0.0001866,53.2155,203.1506,58.3448,28.6801,-0.0015405,-0.00024738,0.0,0 STARLINK-4681,1 53594U 22104G   22335.91667824 -.00024738  00000-0 -15405-2 0  9996,2 53594  53.2155 203.1506 0001866  58.3448  28.6801 15.08864513 14707,6917.805,95.436,540.961,538.38,0.0
53594.0,STARLINK-4681,PAYLOAD,2022-12-02 14:00:01,15.08810144,0.0001663,53.2159,200.1559,61.1013,49.2001,0.0022399,0.00035511,0.0,0 STARLINK-4681,1 53594U 22104G   22336.58334491  .00035511  00000-0  22399-2 0  9990,2 53594  53.2159 200.1559 0001663  61.1013  49.2001 15.08810144 14804,6917.972,95.439,540.987,538.686,0.0
53594.0,STARLINK-4681,PAYLOAD,2022-12-02 22:00:00,15.08829876,0.0001821,53.2159,198.6614,55.5651,66.3123,-0.0004073,-6.763e-05,0.0,0 STARLINK-4681,1 53594U 22104G   22336.91667824 -.00006763  00000-0 -40730-3 0  9995,2 53594  53.2159 198.6614 0001821  55.5651  66.3123 15.08829876  1306,6917.911,95.438,541.036,538.5169999999998,0.0
53594.0,STARLINK-4681,PAYLOAD,2022-12-03 06:00:00,15.08861944,0.0001754,53.216,197.1645,54.1298,79.3234,-0.004439,-0.00070289,0.0,0 STARLINK-4681,1 53594U 22104G   22337.25001157 -.00070289  00000-0 -44390-2 0  9993,2 53594  53.2160 197.1645 0001754  54.1298  79.3234 15.08861944 14902,6917.813,95.436,540.8919999999998,538.465,0.0
53594.0,STARLINK-4681,PAYLOAD,2022-12-03 14:00:01,15.08804105,0.000164,53.2163,195.667,60.0525,84.9945,0.0018751,0.00029651,0.0,0 STARLINK-4681,1 53594U 22104G   22337.58334491  .00029651  00000-0  18751-2 0  9996,2 53594  53.2163 195.6670 0001640  60.0525  84.9945 15.08804105  1306,6917.99,95.44,540.99,538.721,0.0
53594.0,STARLINK-4681,PAYLOAD,2022-12-03 22:00:00,15.08815646,0.0001798,53.2162,194.1725,53.8951,102.7176,-3.7437e-05,-8.83e-06,0.0,0 STARLINK-4681,1 53594U 22104G   22337.91667824 -.00000883  00000-0 -37437-4 0  9994,2 53594  53.2162 194.1725 0001798  53.8951 102.7176 15.08815646 15006,6917.955,95.439,541.064,538.576,0.0
53594.0,STARLINK-4681,PAYLOAD,2022-12-04 14:00:01,15.08822591,0.0001686,53.2164,191.1782,61.4148,118.3398,0.0014781,0.00023303,0.0,0 STARLINK-4681,1 53594U 22104G   22338.58334491  .00023303  00000-0  14781-2 0  9994,2 53594  53.2164 191.1782 0001686  61.4148 118.3398 15.08822591  1301,6917.934,95.439,540.965,538.632,0.0
53594.0,STARLINK-4681,PAYLOAD,2022-12-04 22:00:00,15.088281699999998,0.0001834,53.2162,189.6836,54.724,136.6178,0.0003977,6.045e-05,0.0,0 STARLINK-4681,1 53594U 22104G   22338.91667824  .00006045  00000-0  39770-3 0  9990,2 53594  53.2162 189.6836 0001834  54.7240 136.6178 15.08828170 15150,6917.917,95.438,541.05,538.513,0.0
53594.0,STARLINK-4681,PAYLOAD,2022-12-05 14:00:01,15.08842156,0.0001695,53.216,186.6893,63.1247,151.4598,0.0011361,0.0001784,0.0,0 STARLINK-4681,1 53594U 22104G   22339.58335648  .00017840  00000-0  11361-2 0  9990,2 53594  53.2160 186.6893 0001695  63.1247 151.4598 15.08842156  1307,6917.874,95.437,540.911,538.566,0.0
53594.0,STARLINK-4681,PAYLOAD,2022-12-05 21:00:07,15.088338,0.0001676999999999,53.2168,185.3797,57.4801,302.6353,0.00020845,3.03e-05,0.0,0 STARLINK-4681,1 53594U 22104G   22339.87509101  .00003030  00000-0  20845-3 0  9993,2 53594  53.2168 185.3797 0001677  57.4801 302.6353 15.08833800 16464,6917.899,95.438,540.924,538.604,0.0
53594.0,STARLINK-4681,PAYLOAD,2022-12-06 00:10:54,15.08839073,0.0001735,53.2159,184.7851,57.6942,302.4218,0.00026641,3.954e-05,0.0,0 STARLINK-4681,1 53594U 22104G   22340.00757193  .00003954  00000-0  26641-3 0  9991,2 53594  53.2159 184.7851 0001735  57.6942 302.4218 15.08839073 15321,6917.8830000000025,95.438,540.948,538.548,0.0
53594.0,STARLINK-4681,PAYLOAD,2022-12-06 12:53:59,15.08846878,0.000173,53.2157,182.4064,59.0906,301.0256,0.0002875,4.291e-05,0.0,0 STARLINK-4681,1 53594U 22104G   22340.53748865  .00004291  00000-0  28750-3 0  9993,2 53594  53.2157 182.4064 0001730  59.0906 301.0256 15.08846878 16566,6917.859,95.437,540.9209999999998,538.528,0.0
53594.0,STARLINK-4681,PAYLOAD,2022-12-06 14:29:22,15.08840131,0.0001751999999999,53.2158,182.1093,61.1797,298.9371,9.9257e-05,1.292e-05,0.0,0 STARLINK-4681,1 53594U 22104G   22340.60373183  .00001292  00000-0  99257-4 0  9997,2 53594  53.2158 182.1093 0001752  61.1797 298.9371 15.08840131 16571,6917.88,95.438,540.957,538.533,0.0
53594.0,STARLINK-4681,PAYLOAD,2022-12-06 22:26:18,15.08833745,0.0001757,53.2159,180.6224,59.7075,300.4091,1.7899999999999998e-05,-3e-08,0.0,0 STARLINK-4681,1 53594U 22104G   22340.93493588 -.00000003  00000-0  17900-4 0  9990,2 53594  53.2159 180.6224 0001757  59.7075 300.4091 15.08833745 15466,6917.9,95.438,540.98,538.549,0.0
53594.0,STARLINK-4681,PAYLOAD,2022-12-07 14:20:09,15.08837806,0.0001754999999999,53.216,177.6486,60.6942,299.4225,3.0204e-05,1.93e-06,0.0,0 STARLINK-4681,1 53594U 22104G   22341.59733613  .00000193  00000-0  30204-4 0  9990,2 53594  53.2160 177.6486 0001755  60.6942 299.4225 15.08837806 16724,6917.887,95.438,540.966,538.538,0.0
53594.0,STARLINK-4681,PAYLOAD,2022-12-07 23:52:28,15.08841975,0.0001754999999999,53.2157,175.8643,59.5949,300.5217,7.633600000000001e-05,9.27e-06,0.0,0 STARLINK-4681,1 53594U 22104G   22341.99477507  .00000927  00000-0  76336-4 0  9992,2 53594  53.2157 175.8643 0001755  59.5949 300.5217 15.08841975 15624,6917.874,95.437,540.953,538.525,0.0
53594.0,STARLINK-4681,PAYLOAD,2022-12-08 12:35:33,15.08843685,0.0001721999999999,53.2159,173.4858,58.4925,301.6235,0.00011316,1.514e-05,0.0,0 STARLINK-4681,1 53594U 22104G   22342.52469384  .00001514  00000-0  11316-3 0  9995,2 53594  53.2159 173.4858 0001722  58.4925 301.6235 15.08843685 16863,6917.869000000002,95.437,540.925,538.543,0.0
53594.0,STARLINK-4681,PAYLOAD,2022-12-08 18:57:06,15.08843956,0.0001699,53.2154,172.2958,58.8973,301.2186,0.00016966,2.413e-05,0.0,0 STARLINK-4681,1 53594U 22104G   22342.78965362  .00002413  00000-0  16966-3 0  9995,2 53594  53.2154 172.2958 0001699  58.8973 301.2186 15.08843956 16903,6917.868,95.437,540.909,538.558,0.0
53594.0,STARLINK-4681,PAYLOAD,2022-12-09 01:18:38,15.08847047,0.0001751999999999,53.2155,171.1064,59.3418,300.7746,0.00025263,3.736e-05,0.0,0 STARLINK-4681,1 53594U 22104G   22343.05461237  .00003736  00000-0  25263-3 0  9997,2 53594  53.2155 171.1064 0001752  59.3418 300.7746 15.08847047 15786,6917.859,95.437,540.936,538.512,0.0
53594.0,STARLINK-4681,PAYLOAD,2022-12-09 12:26:21,15.08803014,0.0001324,53.2163,169.0249,345.9769,14.1186,-0.00036634,-6.107e-05,0.0,0 STARLINK-4681,1 53594U 22104G   22343.51830496 -.00006107  00000-0 -36634-3 0  9996,2 53594  53.2163 169.0249 0001324 345.9769  14.1186 15.08803014 17012,6917.993,95.44,540.774,538.943,0.0
53594.0,STARLINK-4681,PAYLOAD,2022-12-09 21:58:38,15.08849312,0.0001336,53.2157,167.2415,53.6065,306.505,0.00017905,2.564e-05,0.0,0 STARLINK-4681,1 53594U 22104G   22343.91572632  .00002564  00000-0  17905-3 0  9996,2 53594  53.2157 167.2415 0001336  53.6065 306.5050 15.08849312 17070,6917.852,95.437,540.641,538.793,0.0
53594.0,STARLINK-4681,PAYLOAD,2022-12-10 18:38:39,15.08844561,0.0001434,53.2168,163.3746,69.4161,290.6985,3.5205e-05,2.72e-06,0.0,0 STARLINK-4681,1 53594U 22104G   22344.77684665  .00000272  00000-0  35205-4 0  9999,2 53594  53.2168 163.3746 0001434  69.4161 290.6985 15.08844561 16044,6917.866,95.437,540.7230000000002,538.739,0.0
53594.0,STARLINK-4681,PAYLOAD,2022-12-11 12:07:53,15.08851872,8.859999999999999e-05,53.216,160.1036,54.1241,305.9833,-0.000269,-4.568e-05,0.0,0 STARLINK-4681,1 53594U 22104G   22345.50547856 -.00004568  00000-0 -26900-3 0  9996,2 53594  53.2160 160.1036 0000886  54.1241 305.9833 15.08851872 17319,6917.844,95.437,540.322,539.096,0.0
53594.0,STARLINK-4681,PAYLOAD,2022-12-11 20:04:49,15.08846689,0.0001673,53.2168,158.6172,59.7146,300.4011,4.519600000000001e-05,4.31e-06,0.0,0 STARLINK-4681,1 53594U 22104G   22345.83668439  .00000431  00000-0  45196-4 0  9995,2 53594  53.2168 158.6172 0001673  59.7146 300.4011 15.08846689 16205,6917.86,95.437,540.882,538.568,0.0
53594.0,STARLINK-4681,PAYLOAD,2022-12-12 10:23:18,15.08833157,0.0001661,53.2171,155.9406,63.4985,296.6177,5.265600000000001e-05,5.5e-06,0.0,0 STARLINK-4681,1 53594U 22104G   22346.43285155  .00000550  00000-0  52656-4 0  9993,2 53594  53.2171 155.9406 0001661  63.4985 296.6177 15.08833157 16293,6917.901,95.438,540.915,538.617,0.0
53594.0,STARLINK-4681,PAYLOAD,2022-12-13 11:49:28,15.08840707,0.0001655,53.2166,151.1822,63.2659,296.8503,4.6269e-05,4.48e-06,0.0,0 STARLINK-4681,1 53594U 22104G   22347.49269064  .00000448  00000-0  46269-4 0  9990,2 53594  53.2166 151.1822 0001655  63.2659 296.8503 15.08840707 17617,6917.878000000002,95.438,540.888,538.5980000000002,0.0
53594.0,STARLINK-4681,PAYLOAD,2022-12-13 18:11:00,15.08843116,0.0001717,53.2166,149.9931,60.7503,299.366,6.380100000000001e-05,7.28e-06,0.0,0 STARLINK-4681,1 53594U 22104G   22347.75764866  .00000728  00000-0  63801-4 0  9991,2 53594  53.2166 149.9931 0001717  60.7503 299.3660 15.08843116 16496,6917.871,95.437,540.924,538.548,0.0
